{
	"english_name": "Yemen",
	"arabic_name": "اليَمَن",
	"iso3": "YEM",
	"iso2": "YE",
	"phone_code": "967",
	"capital_english": "Sanaa",
	"capital_arabic": "صنعاء",
	"area_in_kilometer_square": "555000",
	"currency": "YER",
	"currency_name_en": "Yemeni rial",
	"currency_name_ar": "ريال يمني",
	"currency_symbol": "﷼",
	"tld": ".ye",
	"region": "Asia",
	"subregion": "Western Asia",
	"timezones": [
		{
			"zoneName": "Asia/Aden",
			"gmtOffset": 10800,
			"gmtOffsetName": "UTC+03:00",
			"abbreviation": "AST",
			"tzName": "Arabia Standard Time"
		}
	],
	"translations": {
		"kr": "예멘",
		"br": "Iêmen",
		"pt": "Iémen",
		"nl": "Jemen",
		"hr": "Jemen",
		"fa": "یمن",
		"de": "Jemen",
		"es": "Yemen",
		"fr": "Yémen",
		"ja": "イエメン",
		"it": "Yemen",
		"cn": "也门",
		"tr": "Yemen"
	},
	"latitude": "15.00000000",
	"longitude": "48.00000000",
	"emoji": "🇾🇪",
	"emojiU": "U+1F1FE U+1F1EA",
	"governorates": [
		[
			{
				"name_en": "Amant Al-Asmah",
				"name_ar": "أمانة العاصمة",
				"name_ar_tashkeel": "أَمانَة العاصِمَةِ",
				"numbering_plan": "01",
				"districts": [
					{
						"name_en": "Sana'a Alqdimah",
						"name_ar": "صنعاء القديمة",
						"name_ar_tashkeel": "صَنْعاء القَدِيمَة"
					},
					{
						"name_en": "Azal",
						"name_ar": "آزَاْل",
						"name_ar_tashkeel": "آزَاْل"
					},
					{
						"name_en": "Alsafiah",
						"name_ar": "الصَّافِيَة",
						"name_ar_tashkeel": "الصَّافِيَة"
					},
					{
						"name_en": "Alsabe'en",
						"name_ar": "السبعين",
						"name_ar_tashkeel": "السَّبْعِين"
					},
					{
						"name_en": "Sh'oob",
						"name_ar": "شعوب",
						"name_ar_tashkeel": "شُعُوْب"
					},
					{
						"name_en": "Alwehdah",
						"name_ar": "الوحدة",
						"name_ar_tashkeel": "الوِحْدَة"
					},
					{
						"name_en": "Al-Tahrir",
						"name_ar": "التحرير",
						"name_ar_tashkeel": "التَّحْرِير"
					},
					{
						"name_en": "Al-Thowarah",
						"name_ar": "الثورة",
						"name_ar_tashkeel": "الثَّوْرَة"
					},
					{
						"name_en": "Maeen",
						"name_ar": "معين",
						"name_ar_tashkeel": "مَعَيْن"
					},
					{
						"name_en": "Bni Al-Harith",
						"name_ar": "بني الحارث",
						"name_ar_tashkeel": "بَنِيْ الحَارِث"
					}
				]
			},

			{
				"name_en": "Sanaa",
				"name_ar": "صنعاء",
				"name_ar_tashkeel": "صَنْعاء",
				"numbering_plan": "01",
				"districts": [
					{
						"name_en": "Hamdan",
						"name_ar": "همدان",
						"name_ar_tashkeel": "هَمْدَان"
					},
					{
						"name_en": "Arhab",
						"name_ar": "أرحب",
						"name_ar_tashkeel": "أَرْحَب"
					},
					{
						"name_en": "Jihanah",
						"name_ar": "جحانة",
						"name_ar_tashkeel": "جِحانْة"
					},
					{
						"name_en": "Bilad AL-Roos",
						"name_ar": "بلاد الروس",
						"name_ar_tashkeel": "بِلَاد الرُّوْس"
					},
					{
						"name_en": "Sanhan",
						"name_ar": "سنحان",
						"name_ar_tashkeel": "سَنْحَان"
					},
					{
						"name_en": "Al-Hisn",
						"name_ar": "الحصن",
						"name_ar_tashkeel": "الحِصْن"
					},
					{
						"name_en": "Sa'fan",
						"name_ar": "صعفان",
						"name_ar_tashkeel": "صَعْفان"
					},
					{
						"name_en": "Bni Hishaish",
						"name_ar": "بني حشيش",
						"name_ar_tashkeel": "بَنِي حِشِيْش"
					},
					{
						"name_en": "Al-Tial",
						"name_ar": "الطيال",
						"name_ar_tashkeel": "الطِّيَال"
					},
					{
						"name_en": "Khawlan",
						"name_ar": "خولان",
						"name_ar_tashkeel": "خَوْلَان"
					},
					{
						"name_en": "Bni Dhabian",
						"name_ar": "بني ضبيان",
						"name_ar_tashkeel": "بَنِيَ ضَبْيَان"
					},
					{
						"name_en": "AL-Haimah Al-Kharijiah",
						"name_ar": "الحيمة الخارجية",
						"name_ar_tashkeel": "الحَيْمَة الخَارِجِيَّة"
					},
					{
						"name_en": "Al-Haimah Al-Dakhiliah",
						"name_ar": "الحيمة الداخلية",
						"name_ar_tashkeel": "الحَيْمَة الدَّاخِلِيَّة"
					},
					{
						"name_en": "Manakhah",
						"name_ar": "مناخة",
						"name_ar_tashkeel": "مَنَاخَة"
					},
					{
						"name_en": "Nihm",
						"name_ar": "نهم",
						"name_ar_tashkeel": "نِهْم"
					},
					{
						"name_en": "Bni Matar",
						"name_ar": "بني مطر",
						"name_ar_tashkeel": "بَنِي مَطَر"
					}
				]
			},

			{
				"name_en": "Aden",
				"name_ar": "عدن",
				"name_ar_tashkeel": "عَدَن",
				"numbering_plan": "02",
				"districts": [
					{
						"name_en": "Dar Saad",
						"name_ar": "دار سعد",
						"name_ar_tashkeel": "دَار سَعْد"
					},

					{
						"name_en": "Al-Shaikh Othman",
						"name_ar": "الشيخ عثمان",
						"name_ar_tashkeel": "الشَّيْخ عُثْمَان"
					},
					{
						"name_en": "Al-Mansorah",
						"name_ar": "المنصورة",
						"name_ar_tashkeel": "المَنْصُورَة"
					},
					{
						"name_en": "Al-Boriqah",
						"name_ar": "البريقة",
						"name_ar_tashkeel": "البُرَيْقَة"
					},
					{
						"name_en": "Al-Tawwahi",
						"name_ar": "التواهي",
						"name_ar_tashkeel": "التَّوَّاهِي"
					},
					{
						"name_en": "Khoor Maksar",
						"name_ar": "خور مكسر",
						"name_ar_tashkeel": "خُوْر مَكَسَر"
					},
					{
						"name_en": "Seerh",
						"name_ar": "صيرة",
						"name_ar_tashkeel": "صِيْرَة"
					},
					{
						"name_en": "Al-Mo'alla",
						"name_ar": "المعلا",
						"name_ar_tashkeel": "المُعَلَّا"
					}
				]
			},
			{
				"name_en": "Al-Hodeidah",
				"name_ar": "الحديدة",
				"name_ar_tashkeel": "الحُدَيْدَة",
				"numbering_plan": "03",
				"districts": [
					{
						"name_en": "Bait Al-Fakih",
						"name_ar": "بيت الفقية",
						"name_ar_tashkeel": "بَيْت الفَقِيْة"
					},

					{
						"name_en": "Al-Tohaita",
						"name_ar": "التحيتا",
						"name_ar_tashkeel": "التُّحَيْتَا"
					},
					{
						"name_en": "Kamaran",
						"name_ar": "كمران",
						"name_ar_tashkeel": "كَمَرَان"
					},
					{
						"name_en": "Al-Khookhah",
						"name_ar": "الخوخة",
						"name_ar_tashkeel": "الخُوْخُة"
					},
					{
						"name_en": "Al-Doraihmi",
						"name_ar": "الدريهمي",
						"name_ar_tashkeel": "الدُرَيْهِمِي"
					},
					{
						"name_en": "Al-Luhayyah",
						"name_ar": "اللحية",
						"name_ar_tashkeel": "اللُّحَيَّة"
					},
					{
						"name_en": "Zabeed",
						"name_ar": "زبيد",
						"name_ar_tashkeel": "زَبِيْد"
					},
					{
						"name_en": "Jabal Raas",
						"name_ar": "جبل راس",
						"name_ar_tashkeel": "جَبَل رَاس"
					},
					{
						"name_en": "Al-Marawiah",
						"name_ar": "المراوعة",
						"name_ar_tashkeel": "المَرَاوِعَة"
					},
					{
						"name_en": "Al-Jarrahi",
						"name_ar": "الجراحي",
						"name_ar_tashkeel": "الجَّرَّاحِي"
					},
					{
						"name_en": "Al-Zuhrah",
						"name_ar": "الزهرة",
						"name_ar_tashkeel": "الزُّهْرَة"
					},
					{
						"name_en": "Al-Mighlaf",
						"name_ar": "المغلاف",
						"name_ar_tashkeel": "المِغْلَاف"
					},
					{
						"name_en": "Al-Mansoriah",
						"name_ar": "المنصورية",
						"name_ar_tashkeel": "المَنْصُورِيَّة"
					},
					{
						"name_en": "Al-Zaydiyah",
						"name_ar": "الزيدية",
						"name_ar_tashkeel": "الزَّيْدِيَة"
					},
					{
						"name_en": "Al-Hali",
						"name_ar": "الحالي",
						"name_ar_tashkeel": "الحَالِي"
					},
					{
						"name_en": "Al-Hojailah",
						"name_ar": "الحجيلة",
						"name_ar_tashkeel": "الحُجَّيْلَة"
					},
					{
						"name_en": "Al-Sokhnah",
						"name_ar": "السخنة",
						"name_ar_tashkeel": "السُّخْنَة"
					},
					{
						"name_en": "Al-Munirah",
						"name_ar": "المنيرة",
						"name_ar_tashkeel": "المُنِيْرَة"
					},
					{
						"name_en": "Al-Hook",
						"name_ar": "الحوك",
						"name_ar_tashkeel": "الحَوَك"
					},
					{
						"name_en": "Al-Saleef",
						"name_ar": "الصليف",
						"name_ar_tashkeel": "الصَّلِيْف"
					},
					{
						"name_en": "Al-Mena",
						"name_ar": "الميناء",
						"name_ar_tashkeel": "المِيْنَاء"
					},
					{
						"name_en": "Bajil",
						"name_ar": "باجل",
						"name_ar_tashkeel": "بَاجِل"
					},
					{
						"name_en": "Al-Dhahi",
						"name_ar": "الضحي",
						"name_ar_tashkeel": "الضَّحِي"
					},
					{
						"name_en": "Hais",
						"name_ar": "حيس",
						"name_ar_tashkeel": "حَيْس"
					},
					{
						"name_en": "Al-Qnawis",
						"name_ar": "القناوص",
						"name_ar_tashkeel": "القَنَاوِص"
					},
					{
						"name_en": "Bora",
						"name_ar": "برع",
						"name_ar_tashkeel": "بُرَع"
					}
				]
			},
			{
				"name_en": "Thamar",
				"name_ar": "ذمار",
				"name_ar_tashkeel": "ذَمَار",
				"numbering_plan": "06",
				"districts": [
					{
						"name_en": "Jhran",
						"name_ar": "جهران",
						"name_ar_tashkeel": "جَهْرَان"
					},

					{
						"name_en": "Otmah",
						"name_ar": "عتمة",
						"name_ar_tashkeel": "عُتْمَة"
					},
					{
						"name_en": "Mayfa’at Ans",
						"name_ar": "ميفعة عنس",
						"name_ar_tashkeel": "مَيْفَعَة عَنْس"
					},
					{
						"name_en": "Al-Hada",
						"name_ar": "الحداء",
						"name_ar_tashkeel": "الحَدَاء"
					},
					{
						"name_en": "Ans",
						"name_ar": "عنس",
						"name_ar_tashkeel": "عَنْس"
					},
					{
						"name_en": "Wosab Al-Safil",
						"name_ar": "وصاب السافل",
						"name_ar_tashkeel": "وِصَاب السَّافِل"
					},
					{
						"name_en": "Wosab Al-Aali",
						"name_ar": "وصاب العالي",
						"name_ar_tashkeel": "وِصَاب العَالِي"
					},
					{
						"name_en": "Jabal Al-Sharq",
						"name_ar": "جبل الشرق",
						"name_ar_tashkeel": "جَبَل الشَّرْق"
					},
					{
						"name_en": "Al-Manar",
						"name_ar": "المنار",
						"name_ar_tashkeel": "المَنَار"
					},
					{
						"name_en": "Maghrib Ans",
						"name_ar": "مغرب عنس",
						"name_ar_tashkeel": "مَغْرِب عَنْس"
					},
					{
						"name_en": "Dhoran Aanis",
						"name_ar": "ضوران آنس",
						"name_ar_tashkeel": "ضُوْرَان آنِس"
					},
					{
						"name_en": "Thamar City",
						"name_ar": "مدينة ذمار",
						"name_ar_tashkeel": "مَدِيْنَة ذَمَار"
					}
				]
			},
			{
				"name_en": "Amran",
				"name_ar": "عمران",
				"name_ar_tashkeel": "عَمْران",
				"numbering_plan": "07",
				"districts": [
					{
						"name_en": "Harf Sofian",
						"name_ar": "حرف سفيان",
						"name_ar_tashkeel": "حَرْف سُفْيَان"
					},

					{
						"name_en": "Hooth",
						"name_ar": "حوث",
						"name_ar_tashkeel": "حُوْث"
					},
					{
						"name_en": "Al-Ashah",
						"name_ar": "العشة",
						"name_ar_tashkeel": "العَشِّة"
					},
					{
						"name_en": "Qiflt Ethar",
						"name_ar": "قفلة عذر",
						"name_ar_tashkeel": "قِفْلَة عِذَر"
					},
					{
						"name_en": "Shaharah",
						"name_ar": "شهارة",
						"name_ar_tashkeel": "شَهَارَة"
					},
					{
						"name_en": "Al-Madan",
						"name_ar": "المدان",
						"name_ar_tashkeel": "المَدَان"
					},
					{
						"name_en": "Sowair",
						"name_ar": "صوير",
						"name_ar_tashkeel": "صُوَيْر"
					},
					{
						"name_en": "Dholaimah Haboor",
						"name_ar": "ظليمة حبور",
						"name_ar_tashkeel": "ظُلَيْمَة حَبُوْر"
					},
					{
						"name_en": "Al-Sawdah",
						"name_ar": "السودة",
						"name_ar_tashkeel": "السَّوْدَة"
					},
					{
						"name_en": "Khamer",
						"name_ar": "خمر",
						"name_ar_tashkeel": "خَمِر"
					},
					{
						"name_en": "Thibain",
						"name_ar": "ذيبين",
						"name_ar_tashkeel": "ذِيْبَيْن"
					},
					{
						"name_en": "Kharif",
						"name_ar": "خارف",
						"name_ar_tashkeel": "خَارِف"
					},
					{
						"name_en": "Raidah",
						"name_ar": "ريدة",
						"name_ar_tashkeel": "رَيْدَة"
					},
					{
						"name_en": "Eyal Yazeed Mountain",
						"name_ar": "جبل عيال يزيد",
						"name_ar_tashkeel": "جَبَل عِيَال يَزِيْد"
					},
					{
						"name_en": "Al-Sawd",
						"name_ar": "السود",
						"name_ar_tashkeel": "السَّوْد"
					},
					{
						"name_en": "Amran",
						"name_ar": "عمران",
						"name_ar_tashkeel": "عَمْرَان"
					},
					{
						"name_en": "Maswar",
						"name_ar": "مسور",
						"name_ar_tashkeel": "مَسْوَر"
					},
					{
						"name_en": "Thula",
						"name_ar": "ثلا",
						"name_ar_tashkeel": "ثُلَا"
					},
					{
						"name_en": "Eial Sraih",
						"name_ar": "عيال سريح",
						"name_ar_tashkeel": "عِيْال سُرَيْح"
					},
					{
						"name_en": "Bni Soraim",
						"name_ar": "بني صريم",
						"name_ar_tashkeel": "بَنِي صُرَيْم"
					}
				]
			},
			{
				"name_en": "Hajjah",
				"name_ar": "حجة",
				"name_ar_tashkeel": "حَجَّة",
				"numbering_plan": "07",
				"districts": [
					{
						"name_en": "Bakel Al-Meer",
						"name_ar": "بكيل المير",
						"name_ar_tashkeel": "بَكِيْل المِيْر"
					},

					{
						"name_en": "Bni Al-Awam",
						"name_ar": "بني العوام",
						"name_ar_tashkeel": "بَنِي العَوّام"
					},
					{
						"name_en": "Aflah Al-Sham",
						"name_ar": "أفلح الشام",
						"name_ar_tashkeel": "أَفْلَح الشَّام"
					},
					{
						"name_en": "Aflah Al-Yemen",
						"name_ar": "أفلح اليمن",
						"name_ar_tashkeel": "أَفْلَح اليَمَن"
					},
					{
						"name_en": "Bni Qais Al-Tawr",
						"name_ar": "بني قيس الطور",
						"name_ar_tashkeel": "بَنِي قَيْس الطَُوْر"
					},
					{
						"name_en": "Kohlan Al-Sharaf",
						"name_ar": "كحلان الشرف",
						"name_ar_tashkeel": "كُحْلَان الشَّرَف"
					},
					{
						"name_en": "Qohlan Affar",
						"name_ar": "كحلان عفار",
						"name_ar_tashkeel": "كُحْلَان عَفَّار"
					},
					{
						"name_en": "Khiran Al-Mahrraq",
						"name_ar": "خيران المحرق",
						"name_ar_tashkeel": "خَيْرَان المُحَرَّق"
					},
					{
						"name_en": "Hajjah",
						"name_ar": "حجة",
						"name_ar_tashkeel": "حَجَّة"
					},
					{
						"name_en": "Hajjah City",
						"name_ar": "مدينة حجة",
						"name_ar_tashkeel": "مَدِيْنَة حَجَّة"
					},
					{
						"name_en": "Qufl Shamar",
						"name_ar": "قفل شمر",
						"name_ar_tashkeel": "قُفْل شَمَر"
					},
					{
						"name_en": "Qarah",
						"name_ar": "قارة",
						"name_ar_tashkeel": "قَارَة"
					},
					{
						"name_en": "Aslm",
						"name_ar": "أسلم",
						"name_ar_tashkeel": "أَسْلَم"
					},
					{
						"name_en": "Al-Jamimah",
						"name_ar": "الجميمة",
						"name_ar_tashkeel": "الجَمِيْمَة"
					},
					{
						"name_en": "Wishhah",
						"name_ar": "وشحة",
						"name_ar_tashkeel": "وِشْحَة"
					},
					{
						"name_en": "Al-Shaghadrah",
						"name_ar": "الشغادرة",
						"name_ar_tashkeel": "الشَّغَادِرَة"
					},
					{
						"name_en": "Al-Mahabishah",
						"name_ar": "المحابشة",
						"name_ar_tashkeel": "المَحَابِشَة"
					},
					{
						"name_en": "Al-Maghribah",
						"name_ar": "المغربة",
						"name_ar_tashkeel": "المَغْرِبَة"
					},
					{
						"name_en": "Al-Miftah",
						"name_ar": "المفتاح",
						"name_ar_tashkeel": "المِفْتَاح"
					},
					{
						"name_en": "Haradh",
						"name_ar": "حرض",
						"name_ar_tashkeel": "حَرَض"
					},
					{
						"name_en": "Hairan",
						"name_ar": "حيران",
						"name_ar_tashkeel": "حَيْرَان"
					},
					{
						"name_en": "Koshar",
						"name_ar": "كشر",
						"name_ar_tashkeel": "كُشَر"
					},
					{
						"name_en": "Sharis",
						"name_ar": "شرس",
						"name_ar_tashkeel": "شَرِس"
					},
					{
						"name_en": "Abs",
						"name_ar": "عبس",
						"name_ar_tashkeel": "عَبْس"
					},
					{
						"name_en": "Koa'dnah",
						"name_ar": "كعيدنة",
						"name_ar_tashkeel": "كُعَيْدِنَة"
					},
					{
						"name_en": "Mabian",
						"name_ar": "مبين",
						"name_ar_tashkeel": "مَبْيَن"
					},
					{
						"name_en": "Al-Shahil",
						"name_ar": "الشاهل",
						"name_ar_tashkeel": "الشَّاهِل"
					},
					{
						"name_en": "Wdhrah",
						"name_ar": "وضرة",
						"name_ar_tashkeel": "وَضْرَة"
					},
					{
						"name_en": "Mostaba'",
						"name_ar": "مستباء",
						"name_ar_tashkeel": "مُسْتَبَاء"
					},
					{
						"name_en": "Meedi",
						"name_ar": "ميدي",
						"name_ar_tashkeel": "مِيْدِي"
					},
					{
						"name_en": "Najrah",
						"name_ar": "نجرة",
						"name_ar_tashkeel": "نَجْرَة"
					}
				]
			},
			{
				"name_en": "Ibb",
				"name_ar": "إب",
				"name_ar_tashkeel": "إِبْ",
				"numbering_plan": "04",
				"districts": [
					{
						"name_en": "Al-Odain",
						"name_ar": "العدين",
						"name_ar_tashkeel": "العُدَيْن"
					},

					{
						"name_en": "Ibb",
						"name_ar": "إب",
						"name_ar_tashkeel": "إِب"
					},
					{
						"name_en": "Ba'dan",
						"name_ar": "بعدان",
						"name_ar_tashkeel": "بَعْدَان"
					},
					{
						"name_en": "Jiblah",
						"name_ar": "جبلة",
						"name_ar_tashkeel": "جِبْلَة"
					},
					{
						"name_en": "Al-Nadrah",
						"name_ar": "النادرة",
						"name_ar_tashkeel": "النَّادِرَة"
					},
					{
						"name_en": "Hobaish",
						"name_ar": "حبيش",
						"name_ar_tashkeel": "حُبَيْش"
					},
					{
						"name_en": "Hazm Al-Odain",
						"name_ar": "حزم العدين",
						"name_ar_tashkeel": "حَزْم العُدَيْن"
					},
					{
						"name_en": "Thi Al-Sufal",
						"name_ar": "ذي السفال",
						"name_ar_tashkeel": "ذِي السُّفَال"
					},
					{
						"name_en": "Al-Radhmah",
						"name_ar": "الرضمة",
						"name_ar_tashkeel": "الرَّضْمَة"
					},
					{
						"name_en": "Al-Sabrah",
						"name_ar": "السبرة",
						"name_ar_tashkeel": "السَّبْرَة"
					},
					{
						"name_en": "Al-Saddah",
						"name_ar": "السدة",
						"name_ar_tashkeel": "السَّدَّة"
					},
					{
						"name_en": "Al-Syiani",
						"name_ar": "السياني",
						"name_ar_tashkeel": "السَّيَّانِي"
					},
					{
						"name_en": "Al-Sha'ir",
						"name_ar": "الشعر",
						"name_ar_tashkeel": "الشَّعِر"
					},
					{
						"name_en": "Al-Dhahar",
						"name_ar": "الظهار",
						"name_ar_tashkeel": "الظَّهَار"
					},
					{
						"name_en": "Fara' Al-Odain",
						"name_ar": "فرع العدين",
						"name_ar_tashkeel": "فَرْع العُدَيْن"
					},
					{
						"name_en": "Al-Qafr",
						"name_ar": "القفر",
						"name_ar_tashkeel": "القَفْر"
					},
					{
						"name_en": "Al-Makhadrh",
						"name_ar": "المخادر",
						"name_ar_tashkeel": "المَخَادِر"
					},
					{
						"name_en": "Mothaikhrah",
						"name_ar": "مذيخرة",
						"name_ar_tashkeel": "مُذَيْخِرَة"
					},
					{
						"name_en": "Al-Mashnnah",
						"name_ar": "المشنة",
						"name_ar_tashkeel": "المَشَنَّة"
					},
					{
						"name_en": "Yareem",
						"name_ar": "يريم",
						"name_ar_tashkeel": "يَرِيْم"
					}
				]
			},
			{
				"name_en": "Sa'dah",
				"name_ar": "صعدة",
				"name_ar_tashkeel": "صَعْدَة",
				"numbering_plan": "07",
				"districts": [
					{
						"name_en": "Al-Hishwah",
						"name_ar": "الحشوة",
						"name_ar_tashkeel": "الحِشْوَة"
					},

					{
						"name_en": "Al-Safra'a",
						"name_ar": "الصفراء",
						"name_ar_tashkeel": "الصَّفْرَاء"
					},
					{
						"name_en": "Al-Dhahir",
						"name_ar": "الظاهر",
						"name_ar_tashkeel": "الظَّاهِر"
					},
					{
						"name_en": "Baqim",
						"name_ar": "باقم",
						"name_ar_tashkeel": "بَاقِم"
					},
					{
						"name_en": "Haidan",
						"name_ar": "حيدان",
						"name_ar_tashkeel": "حَيْدَان"
					},
					{
						"name_en": "Razih",
						"name_ar": "رازح",
						"name_ar_tashkeel": "رَازِح"
					},
					{
						"name_en": "Saqain",
						"name_ar": "ساقين",
						"name_ar_tashkeel": "سَاقَيْن"
					},
					{
						"name_en": "Sahar",
						"name_ar": "سحار",
						"name_ar_tashkeel": "سَحَار"
					},
					{
						"name_en": "Shida'a",
						"name_ar": "شداء",
						"name_ar_tashkeel": "شِدَاء"
					},
					{
						"name_en": "Sa'dah",
						"name_ar": "صعدة",
						"name_ar_tashkeel": "صَعْدَة"
					},
					{
						"name_en": "Ghamer",
						"name_ar": "غمر",
						"name_ar_tashkeel": "غَمَر"
					},
					{
						"name_en": "Qatabir",
						"name_ar": "قطابر",
						"name_ar_tashkeel": "قَطَابِر"
					},
					{
						"name_en": "Kitaf and Bog'",
						"name_ar": "كتاف والبقع",
						"name_ar_tashkeel": "كِتَاف وَالبُقْع"
					},
					{
						"name_en": "Majz",
						"name_ar": "مجز",
						"name_ar_tashkeel": "مَجْز"
					},
					{
						"name_en": "Munabbih",
						"name_ar": "منبه",
						"name_ar_tashkeel": "مُنَبِّه"
					}
				]
			},
			{
				"name_en": "Al-Baidha",
				"name_ar": "البيضاء",
				"name_ar_tashkeel": "البَيْضَاء",
				"numbering_plan": "06",
				"districts": [
					{
						"name_en": "Al-Baidha City",
						"name_ar": "مدينة البيضاء",
						"name_ar_tashkeel": "مَدِينَة البَيْضَاء"
					},

					{
						"name_en": "Al-Baidha",
						"name_ar": "البيضاء",
						"name_ar_tashkeel": "البَيْضَاء"
					},
					{
						"name_en": "Al-Zaher",
						"name_ar": "الزاهر",
						"name_ar_tashkeel": "الزَّاهِر"
					},
					{
						"name_en": "Radman",
						"name_ar": "ردمان",
						"name_ar_tashkeel": "رَدْمَان"
					},
					{
						"name_en": "Al-Riashiah",
						"name_ar": "الرياشية",
						"name_ar_tashkeel": "الرِّيَاشِيَّة"
					},
					{
						"name_en": "Al-Swadiah",
						"name_ar": "السوادية",
						"name_ar_tashkeel": "السُّوَادِيَّة"
					},
					{
						"name_en": "Al-Shariah",
						"name_ar": "الشرية",
						"name_ar_tashkeel": "الشَرِيَّة"
					},
					{
						"name_en": "Sabah",
						"name_ar": "صباح",
						"name_ar_tashkeel": "صَبَاح"
					},
					{
						"name_en": "Al-Sawma'ah",
						"name_ar": "الصومعة",
						"name_ar_tashkeel": "الصَّوْمَعَة"
					},
					{
						"name_en": "Al-Tiffah",
						"name_ar": "الطفة",
						"name_ar_tashkeel": "الطَّفَّة"
					},
					{
						"name_en": "Al-Arsh",
						"name_ar": "العرش",
						"name_ar_tashkeel": "العَرْش"
					},
					{
						"name_en": "Al-Qurishiah",
						"name_ar": "القريشية",
						"name_ar_tashkeel": "القُرَيْشِيَّة"
					},
					{
						"name_en": "Thi Na'em",
						"name_ar": "ذي ناعم",
						"name_ar_tashkeel": "ذِي نَاعِم"
					},
					{
						"name_en": "Maswarah",
						"name_ar": "مسورة",
						"name_ar_tashkeel": "مَسْوَرَة"
					},
					{
						"name_en": "Mukiras",
						"name_ar": "مكيراس",
						"name_ar_tashkeel": "مُكَيْرَاس"
					},
					{
						"name_en": "Al-Malajim",
						"name_ar": "الملاجم",
						"name_ar_tashkeel": "المَلَاجِم"
					},
					{
						"name_en": "Nati'",
						"name_ar": "ناطع",
						"name_ar_tashkeel": "نَاطِع"
					},
					{
						"name_en": "Na'man",
						"name_ar": "نعمان",
						"name_ar_tashkeel": "نَعْمَان"
					},
					{
						"name_en": "Wild Rabee'",
						"name_ar": "ولد ربيع",
						"name_ar_tashkeel": "وِلْد رَبِيْع"
					},
					{
						"name_en": "Rada'",
						"name_ar": "رداع",
						"name_ar_tashkeel": "رَدَاع"
					}
				]
			},
			{
				"name_en": "Shabwah",
				"name_ar": "شبوة",
				"name_ar_tashkeel": "شَبْوَة",
				"numbering_plan": "05",
				"districts": [
					{
						"name_en": "Al-Rawdhah",
						"name_ar": "الروضة",
						"name_ar_tashkeel": "الرَّوْضَة"
					},

					{
						"name_en": "Bayhan",
						"name_ar": "بيحان",
						"name_ar_tashkeel": "بَيْحَان"
					},
					{
						"name_en": "Jardan",
						"name_ar": "جردان",
						"name_ar_tashkeel": "جَرْدَان"
					},
					{
						"name_en": "Habban",
						"name_ar": "حبان",
						"name_ar_tashkeel": "حَبَّان"
					},
					{
						"name_en": "Ain",
						"name_ar": "عين",
						"name_ar_tashkeel": "عَيْن"
					},
					{
						"name_en": "Hotaib",
						"name_ar": "حطيب",
						"name_ar_tashkeel": "حُطَيْب"
					},
					{
						"name_en": "Duhur",
						"name_ar": "دهر",
						"name_ar_tashkeel": "دُهُر"
					},
					{
						"name_en": "Rudhoom",
						"name_ar": "رضوم",
						"name_ar_tashkeel": "رُضُوْم"
					},
					{
						"name_en": "Al-Sa'eed",
						"name_ar": "الصعيد",
						"name_ar_tashkeel": "الصَّعِيْد"
					},
					{
						"name_en": "Al-Talh",
						"name_ar": "الطلح",
						"name_ar_tashkeel": "الطَّلْح"
					},
					{
						"name_en": "Ataq",
						"name_ar": "عتق",
						"name_ar_tashkeel": "عَتَق"
					},
					{
						"name_en": "Arma'",
						"name_ar": "عرماء",
						"name_ar_tashkeel": "عَرْمَاء"
					},
					{
						"name_en": "Osailan",
						"name_ar": "عسيلان",
						"name_ar_tashkeel": "عُسَيْلَان"
					},
					{
						"name_en": "Markhah Al-Sofla",
						"name_ar": "مرخة السفلى",
						"name_ar_tashkeel": "مَرْخَة السُّفْلَى"
					},
					{
						"name_en": "Markhah Al-Olia",
						"name_ar": "مرخة العليا",
						"name_ar_tashkeel": "مَرْخَة العُلْيَا"
					},
					{
						"name_en": "Maifa'h",
						"name_ar": "ميفعة",
						"name_ar_tashkeel": "مَيْفَعَة"
					},
					{
						"name_en": "Nesab",
						"name_ar": "نصاب",
						"name_ar_tashkeel": "نِصَاب"
					}
				]
			},
			{
				"name_en": "Taiz",
				"name_ar": "تعز",
				"name_ar_tashkeel": "تَعِز",
				"numbering_plan": "04",
				"districts": [
					{
						"name_en": "Mawiah",
						"name_ar": "ماوية",
						"name_ar_tashkeel": "مَاوِيَة"
					},

					{
						"name_en": "Shara'b Al-Salam",
						"name_ar": "شرعب السلام",
						"name_ar_tashkeel": "شَرْعَب السَّلَام"
					},
					{
						"name_en": "Shara'b Al-Rawnah",
						"name_ar": "شرعب الرونة",
						"name_ar_tashkeel": "شَرْعَب الرَّوْنَة"
					},
					{
						"name_en": "Maqbana",
						"name_ar": "مقبنة",
						"name_ar_tashkeel": "مَقْبَنَة"
					},
					{
						"name_en": "Al-Makha",
						"name_ar": "المخا",
						"name_ar_tashkeel": "المَخَا"
					},
					{
						"name_en": "Thubab",
						"name_ar": "ذباب",
						"name_ar_tashkeel": "ذُبَاب"
					},
					{
						"name_en": "Mawza'",
						"name_ar": "موزع",
						"name_ar_tashkeel": "مَوْزَع"
					},
					{
						"name_en": "Habashi Mountain",
						"name_ar": "جبل حبشي",
						"name_ar_tashkeel": "جَبَل حَبَشِي"
					},
					{
						"name_en": "Mashra'a and Hadnan",
						"name_ar": "مشرعة وحدنان",
						"name_ar_tashkeel": "مَشْرَعَة وَحَدْنَان"
					},
					{
						"name_en": "Saber Al-Mawadim",
						"name_ar": "صبر الموادم",
						"name_ar_tashkeel": "صَبِر المَوَادِم"
					},
					{
						"name_en": "Al-Misrakh",
						"name_ar": "المسراخ",
						"name_ar_tashkeel": "المِسْرَاخ"
					},
					{
						"name_en": "Khadeer",
						"name_ar": "خدير",
						"name_ar_tashkeel": "خَدِيْر"
					},
					{
						"name_en": "Al-Selw",
						"name_ar": "الصلو",
						"name_ar_tashkeel": "الصِّلْو"
					},
					{
						"name_en": "Al-Shamaiatain",
						"name_ar": "الشمايتين",
						"name_ar_tashkeel": "الشَّمَايَتَيْن"
					},
					{
						"name_en": "Al-Waz'iah",
						"name_ar": "الوازعية",
						"name_ar_tashkeel": "الوَازِعِيَّة"
					},
					{
						"name_en": "Haifan",
						"name_ar": "حيفان",
						"name_ar_tashkeel": "حَيْفَان"
					},
					{
						"name_en": "Al-Mathfar",
						"name_ar": "المظفر",
						"name_ar_tashkeel": "المَظْفَر"
					},
					{
						"name_en": "Al-Qahera",
						"name_ar": "القاهرة",
						"name_ar_tashkeel": "القَاهِرَة"
					},
					{
						"name_en": "Salah",
						"name_ar": "صالة",
						"name_ar_tashkeel": "صَالَة"
					},
					{
						"name_en": "Al-Taiziah",
						"name_ar": "التعزية",
						"name_ar_tashkeel": "التَّعِزِّيَة"
					},
					{
						"name_en": "Al-Ma'afer",
						"name_ar": "المعافر",
						"name_ar_tashkeel": "المَعَافِر"
					},
					{
						"name_en": "Al-Mawasit",
						"name_ar": "المواسط",
						"name_ar_tashkeel": "المَوَاسِط"
					},
					{
						"name_en": "Sama'",
						"name_ar": "سامع",
						"name_ar_tashkeel": "سَامِع"
					}
				]
			},
			{
				"name_en": "Al-jawf",
				"name_ar": "الجوف",
				"name_ar_tashkeel": "الجَوْف",
				"numbering_plan": "06",
				"districts": [
					{
						"name_en": "Barat Al-enan",
						"name_ar": "برط العنان",
						"name_ar_tashkeel": "بَرَطَ العِنَان"
					},

					{
						"name_en": "Al-Hazm",
						"name_ar": "الحزم",
						"name_ar_tashkeel": "الحَزْم"
					},
					{
						"name_en": "Al-Humaidat",
						"name_ar": "الحميدات",
						"name_ar_tashkeel": "الحُمَيْدَات"
					},
					{
						"name_en": "Khab and Al-Sha’af",
						"name_ar": "خب والشعف",
						"name_ar_tashkeel": "خَب وَالشَعَف"
					},
					{
						"name_en": "Kharab Al-Marashi",
						"name_ar": "خراب المراشي",
						"name_ar_tashkeel": "خَرَاب المَرَاشِي"
					},
					{
						"name_en": "Al-Khalq",
						"name_ar": "الخلق",
						"name_ar_tashkeel": "الخَلَق"
					},
					{
						"name_en": "Rajozah",
						"name_ar": "رجوزة",
						"name_ar_tashkeel": "رَجُوْزَة"
					},
					{
						"name_en": "Al-Zaher",
						"name_ar": "الزاهر",
						"name_ar_tashkeel": "الزَّاهِر"
					},
					{
						"name_en": "Al-Ghail",
						"name_ar": "الغيل",
						"name_ar_tashkeel": "الغَيْل"
					},
					{
						"name_en": "Al-Mutoon",
						"name_ar": "المتون",
						"name_ar_tashkeel": "المُتُوْن"
					},
					{
						"name_en": "Al-Masloob",
						"name_ar": "المصلوب",
						"name_ar_tashkeel": "المَصْلُوْب"
					},
					{
						"name_en": "Al-Matmmah",
						"name_ar": "المطمة",
						"name_ar_tashkeel": "المَطَمّة"
					}
				]
			},
			{
				"name_en": "Ma'rib",
				"name_ar": "مأرب",
				"name_ar_tashkeel": "مَأْرِب",
				"numbering_plan": "06",
				"districts": [
					{
						"name_en": "Bedbedah",
						"name_ar": "بدبدة",
						"name_ar_tashkeel": "بِدْبِدَة"
					},

					{
						"name_en": "Morad Mountain",
						"name_ar": "جبل مراد",
						"name_ar_tashkeel": "جَبَل مُرَاد"
					},
					{
						"name_en": "Madghal Al-Gida'an",
						"name_ar": "مدغل الجدعان",
						"name_ar_tashkeel": "مَدْغَل الجِدْعَان"
					},
					{
						"name_en": "Ma'rib City",
						"name_ar": "مدينة مأرب",
						"name_ar_tashkeel": "مَدِينَة مَأْرِب"
					},
					{
						"name_en": "Hareeb",
						"name_ar": "حريب",
						"name_ar_tashkeel": "حَرِيْب"
					},
					{
						"name_en": "Hareeb Al-Qaramish",
						"name_ar": "حريب القرامش",
						"name_ar_tashkeel": "حَرِيْب القَرَامِش"
					},
					{
						"name_en": "Rahabah",
						"name_ar": "رحبة",
						"name_ar_tashkeel": "رَحَبَة"
					},
					{
						"name_en": "Raghwan",
						"name_ar": "رغوان",
						"name_ar_tashkeel": "رَغْوَان"
					},
					{
						"name_en": "Sirwah",
						"name_ar": "صرواح",
						"name_ar_tashkeel": "صِرْوَاح"
					},
					{
						"name_en": "Al-Abdiah",
						"name_ar": "العبدية",
						"name_ar_tashkeel": "العَبْدِيَّة"
					},
					{
						"name_en": "Mahliah",
						"name_ar": "ماهلية",
						"name_ar_tashkeel": "ماهِلِيَّة"
					},
					{
						"name_en": "Al-Jobah",
						"name_ar": "الجوبة",
						"name_ar_tashkeel": "الجُوْبَة"
					},
					{
						"name_en": "Majzar",
						"name_ar": "مجزر",
						"name_ar_tashkeel": "مَجْزَر"
					},
					{
						"name_en": "Al-Mokalla City",
						"name_ar": "مدينة المكلا",
						"name_ar_tashkeel": "مَدِيْنَة المُكَلَّا"
					}
				]
			},
			{
				"name_en": "Hadramot",
				"name_ar": "حضرموت",
				"name_ar_tashkeel": "حَضْرَمَوْت",
				"numbering_plan": "05",
				"districts": [
					{
						"name_en": "Al-Mokalla",
						"name_ar": "المكلا",
						"name_ar_tashkeel": "المُكَلَّا"
					},

					{
						"name_en": "Thamood",
						"name_ar": "ثمود",
						"name_ar_tashkeel": "ثَمُوْد"
					},
					{
						"name_en": "Al-Qaf",
						"name_ar": "القف",
						"name_ar_tashkeel": "القَف"
					},
					{
						"name_en": "Zamakh and Manookh",
						"name_ar": "زمخ ومنوخ",
						"name_ar_tashkeel": "زَمَخ وَمُنُوْخ"
					},
					{
						"name_en": "Hajr",
						"name_ar": "حجر",
						"name_ar_tashkeel": "حَجْر"
					},
					{
						"name_en": "Al-Abr",
						"name_ar": "العبر",
						"name_ar_tashkeel": "العَبْر"
					},
					{
						"name_en": "Al-Qatn",
						"name_ar": "القطن",
						"name_ar_tashkeel": "القَطَن"
					},
					{
						"name_en": "Shibam",
						"name_ar": "شبام",
						"name_ar_tashkeel": "شِبَام"
					},
					{
						"name_en": "Sah",
						"name_ar": "ساه",
						"name_ar_tashkeel": "سَاه"
					},
					{
						"name_en": "Say'on",
						"name_ar": "سيئون",
						"name_ar_tashkeel": "سَيْئُون"
					},
					{
						"name_en": "Tarim",
						"name_ar": "تريم",
						"name_ar_tashkeel": "تَرِيْم"
					},
					{
						"name_en": "Al-Soom",
						"name_ar": "السوم",
						"name_ar_tashkeel": "السُّوْم"
					},
					{
						"name_en": "Al-Raidah and Qusaier",
						"name_ar": "الريدة وقصيعر",
						"name_ar_tashkeel": "الرَّيْدَة وَقُصَيْعَِر"
					},
					{
						"name_en": "Al-Dais",
						"name_ar": "الديس",
						"name_ar_tashkeel": "الدِّيْس"
					},
					{
						"name_en": "Al-Shihr",
						"name_ar": "الشحر",
						"name_ar_tashkeel": "الشِّحْر"
					},
					{
						"name_en": "Ghail Bin Yameen",
						"name_ar": "غيل بن يمين",
						"name_ar_tashkeel": "غَيْل بِْن يَمِيْن"
					},
					{
						"name_en": "Ghail Ba Wazeer",
						"name_ar": "غيل باوزير",
						"name_ar_tashkeel": "غَيْل بَاوَزِيْر"
					},
					{
						"name_en": "Dawa'an",
						"name_ar": "دوعن",
						"name_ar_tashkeel": "دَوْعَن"
					},
					{
						"name_en": "Amd",
						"name_ar": "عمد",
						"name_ar_tashkeel": "عَمْد"
					},
					{
						"name_en": "Al-Ayn Valley",
						"name_ar": "حورة ووادي العين",
						"name_ar_tashkeel": "حُوْرَة وَوَادِي العَيْن"
					},
					{
						"name_en": "Raikhyah",
						"name_ar": "رخية",
						"name_ar_tashkeel": "رَخْيَة"
					},
					{
						"name_en": "Yabo'th",
						"name_ar": "يبعث",
						"name_ar_tashkeel": "يَبْعُث"
					},
					{
						"name_en": "Hajar Al-Saia'ar",
						"name_ar": "حجر الصيعر",
						"name_ar_tashkeel": "حَجْر الصَّيْعَر"
					},
					{
						"name_en": "Barom Maifa'a",
						"name_ar": "بروم ميفع",
						"name_ar_tashkeel": "بُرُوم مَيْفَع"
					},
					{
						"name_en": "Al-Dhlia'ah",
						"name_ar": "الضليعة",
						"name_ar_tashkeel": "الضِّلِيْعَة"
					},
					{
						"name_en": "Rumah",
						"name_ar": "رماه",
						"name_ar_tashkeel": "رُمَاه"
					},
					{
						"name_en": "Huridhah",
						"name_ar": "حريضة",
						"name_ar_tashkeel": "حُرَيْضَة"
					}
				]
			},
			{
				"name_en": "Al-Maharah",
				"name_ar": "المهرة",
				"name_ar_tashkeel": "المَهَرَة",
				"numbering_plan": "05",
				"districts": [
					{
						"name_en": "Haat",
						"name_ar": "حات",
						"name_ar_tashkeel": "حَات"
					},

					{
						"name_en": "Hsween",
						"name_ar": "حصوين",
						"name_ar_tashkeel": "حَصْوِيْن"
					},
					{
						"name_en": "Hawf",
						"name_ar": "حوف",
						"name_ar_tashkeel": "حَوْف"
					},
					{
						"name_en": "Syhoot",
						"name_ar": "سيحوت",
						"name_ar_tashkeel": "سَيْحُوْت"
					},
					{
						"name_en": "Shihin",
						"name_ar": "شحن",
						"name_ar_tashkeel": "شِحِْن"
					},
					{
						"name_en": "Al-Ghaidhah",
						"name_ar": "الغيضة",
						"name_ar_tashkeel": "الغَيْضَة"
					},
					{
						"name_en": "Qashn",
						"name_ar": "قشن",
						"name_ar_tashkeel": "قِشْن"
					},
					{
						"name_en": "Al-Masilah",
						"name_ar": "المسيلة",
						"name_ar_tashkeel": "المَسِيْلَة"
					},
					{
						"name_en": "Man'r",
						"name_ar": "منعر",
						"name_ar_tashkeel": "مَنْعَر"
					}
				]
			},
			{
				"name_en": "Al-Dhale'",
				"name_ar": "الضالع",
				"name_ar_tashkeel": "الضَّالِع",
				"numbering_plan": "02",
				"districts": [
					{
						"name_en": "Al-Azariq",
						"name_ar": "الأزارق",
						"name_ar_tashkeel": "الأَزَارِق"
					},

					{
						"name_en": "Al-Hasha'",
						"name_ar": "الحشاء",
						"name_ar_tashkeel": "الحَشَاء"
					},
					{
						"name_en": "Al-Hosain",
						"name_ar": "الحصين",
						"name_ar_tashkeel": "الحُصَيْن"
					},
					{
						"name_en": "Al-Sho'aib",
						"name_ar": "الشعيب",
						"name_ar_tashkeel": "الشُّعَيْب"
					},
					{
						"name_en": "Al-Dhale'",
						"name_ar": "الضالع",
						"name_ar_tashkeel": "الضَّالِع"
					},
					{
						"name_en": "Joban",
						"name_ar": "جبن",
						"name_ar_tashkeel": "جُبَن"
					},
					{
						"name_en": "Jehaf",
						"name_ar": "جحاف",
						"name_ar_tashkeel": "جِحَاف"
					},
					{
						"name_en": "Damt",
						"name_ar": "دمت",
						"name_ar_tashkeel": "دَمْت"
					},
					{
						"name_en": "Qa'tabah",
						"name_ar": "قعطبة",
						"name_ar_tashkeel": "قَعْطَبَة"
					}
				]
			},
			{
				"name_en": "Al-Mahweet",
				"name_ar": "المحويت",
				"name_ar_tashkeel": "المَحْوِيْت",
				"numbering_plan": "07",
				"districts": [
					{
						"name_en": "Melhan",
						"name_ar": "ملحان",
						"name_ar_tashkeel": "مَلْحَان"
					},

					{
						"name_en": "Al-Khabt",
						"name_ar": "الخبت",
						"name_ar_tashkeel": "الخَبْت"
					},
					{
						"name_en": "Al-Tawilah",
						"name_ar": "الطويلة",
						"name_ar_tashkeel": "الطَّوِيْلَة"
					},
					{
						"name_en": "Bni Sa'd",
						"name_ar": "بني سعد",
						"name_ar_tashkeel": "بَنِي سَعْد"
					},
					{
						"name_en": "Al-Rojom",
						"name_ar": "الرجم",
						"name_ar_tashkeel": "الرُّجُم"
					},
					{
						"name_en": "Al-Mahweet",
						"name_ar": "المحويت",
						"name_ar_tashkeel": "المَحْوِيْت"
					},
					{
						"name_en": "Al-Mahweet City",
						"name_ar": "مدينة المحويت",
						"name_ar_tashkeel": "مَدِيْنَة المَحْوِيْت"
					},
					{
						"name_en": "Shibam Kawkaban",
						"name_ar": "شبام كوكبان",
						"name_ar_tashkeel": "شِبَام كَوْكَبَان"
					},
					{
						"name_en": "Hofash",
						"name_ar": "حفاش",
						"name_ar_tashkeel": "حُفَاش"
					}
				]
			},
			{
				"name_en": "Lahj",
				"name_ar": "لحج",
				"name_ar_tashkeel": "لَحْج",
				"numbering_plan": "02",
				"districts": [
					{
						"name_en": "Al-Had",
						"name_ar": "الحد",
						"name_ar_tashkeel": "الحَد"
					},

					{
						"name_en": "Al-Hotah",
						"name_ar": "الحوطة",
						"name_ar_tashkeel": "الحُوْطَة"
					},
					{
						"name_en": "Al-Qabbaytah",
						"name_ar": "القبيطة",
						"name_ar_tashkeel": "القَبَّيْطَة"
					},
					{
						"name_en": "Al-Mosaimeer",
						"name_ar": "المسيمير",
						"name_ar_tashkeel": "المُسَيمِيْر"
					},
					{
						"name_en": "Al-Madharaba and Al-A'ara",
						"name_ar": "المضاربة والعارة",
						"name_ar_tashkeel": "المَضَارِبَة وَالعَارَة"
					},
					{
						"name_en": "Al-Muflhi",
						"name_ar": "المفلحي",
						"name_ar_tashkeel": "المُفْلِحِي"
					},
					{
						"name_en": "Al-Maqatirah",
						"name_ar": "المقاطرة",
						"name_ar_tashkeel": "المَقَاطِرَة"
					},
					{
						"name_en": "Al-Milah",
						"name_ar": "الملاح",
						"name_ar_tashkeel": "المَلَاح"
					},
					{
						"name_en": "Tbn",
						"name_ar": "تبن",
						"name_ar_tashkeel": "تُبَن"
					},
					{
						"name_en": "Halimain",
						"name_ar": "حالمين",
						"name_ar_tashkeel": "حَالِمَيْن"
					},
					{
						"name_en": "Hobail Jabr",
						"name_ar": "حبيل جبر",
						"name_ar_tashkeel": "حَبِيْل جَبْر"
					},
					{
						"name_en": "Radfan",
						"name_ar": "ردفان",
						"name_ar_tashkeel": "رَدْفَان"
					},
					{
						"name_en": "Toor Al-Baha",
						"name_ar": "طور الباحة",
						"name_ar_tashkeel": "طُوْر البَاحَة"
					},
					{
						"name_en": "Yafe'",
						"name_ar": "يافع",
						"name_ar_tashkeel": "يَافِع"
					},
					{
						"name_en": "Yahar",
						"name_ar": "يهر",
						"name_ar_tashkeel": "يَهَر"
					}
				]
			},
			{
				"name_en": "Raimah",
				"name_ar": "ريمة",
				"name_ar_tashkeel": "رَيْمَة",
				"numbering_plan": "03",
				"districts": [
					{
						"name_en": "Bilad Al-Ta'am",
						"name_ar": "بلاد الطعام",
						"name_ar_tashkeel": "بِلَاد الطَّعَام"
					},

					{
						"name_en": "Al-Salfiah",
						"name_ar": "السلفية",
						"name_ar_tashkeel": "السَّلْفِيَة"
					},
					{
						"name_en": "Al-Jobain",
						"name_ar": "الجبين",
						"name_ar_tashkeel": "الجَبِيْن"
					},
					{
						"name_en": "Mizhir",
						"name_ar": "مزهر",
						"name_ar_tashkeel": "مِزْهِر"
					},
					{
						"name_en": "Kosmah",
						"name_ar": "كسمة",
						"name_ar_tashkeel": "كُسْمَة"
					},
					{
						"name_en": "Al-ja'faria",
						"name_ar": "الجعفرية",
						"name_ar_tashkeel": "الجَعْفَرِيَّة"
					}
				]
			},
			{
				"name_en": "Socatra",
				"name_ar": "سقطرى",
				"name_ar_tashkeel": "سُقَطْرَى",
				"numbering_plan": "05",
				"districts": [
					{
						"name_en": "Hadibu",
						"name_ar": "حديبو",
						"name_ar_tashkeel": "حَدِيْبُو"
					},

					{
						"name_en": "Qulansiyah and 'Abd-al-Kuri",
						"name_ar": "قلنسية وعبد الكوري",
						"name_ar_tashkeel": "قَلَنْسِيِّة وَعَبْد الكُوْرِي"
					}
				]
			},
			{
				"name_en": "Abyan",
				"name_ar": "أبين",
				"name_ar_tashkeel": "أَبْيَن",
				"numbering_plan": "02",
				"districts": [
					{
						"name_en": "Mudiyah",
						"name_ar": "مودية",
						"name_ar_tashkeel": "مُوْدِيَة"
					},

					{
						"name_en": "Al Mahfid",
						"name_ar": "المحفد",
						"name_ar_tashkeel": "المَحْفَد"
					},
					{
						"name_en": "Jayshan",
						"name_ar": "جيشان",
						"name_ar_tashkeel": "جَيْشَان"
					},
					{
						"name_en": "Lawdar",
						"name_ar": "لودر",
						"name_ar_tashkeel": "لَوْدَر"
					},
					{
						"name_en": "Sabah",
						"name_ar": "سباح",
						"name_ar_tashkeel": "سَبَاح"
					},
					{
						"name_en": "Rusud",
						"name_ar": "رصد",
						"name_ar_tashkeel": "رُصُد"
					},
					{
						"name_en": "Sarar",
						"name_ar": "سرار",
						"name_ar_tashkeel": "سَرَار"
					},
					{
						"name_en": "Al-Wadhi'",
						"name_ar": "الوضيع",
						"name_ar_tashkeel": "الوَضِيْع"
					},
					{
						"name_en": "Ahwar",
						"name_ar": "أحور",
						"name_ar_tashkeel": "أَحْوَر"
					},
					{
						"name_en": "Zunjubar",
						"name_ar": "زنجبار",
						"name_ar_tashkeel": "زُنْجُبَار"
					},
					{
						"name_en": "Khanfar",
						"name_ar": "خنفر",
						"name_ar_tashkeel": "خَنْفَر"
					}
				]
			}
		]
	]
}
